[{"OBJECT_NAME":"STARLINK-30933","OBJECT_ID":"2023-180J","EPOCH":"2026-03-09T14:00:51.710976","MEAN_MOTION":15.27584539,"ECCENTRICITY":3.41e-5,"INCLINATION":42.9954,"RA_OF_ASC_NODE":267.3407,"ARG_OF_PERICENTER":347.1616,"MEAN_ANOMALY":12.9227,"EPHEMERIS_TYPE":0,"CLASSIFICATION_TYPE":"U","NORAD_CAT_ID":58410,"ELEMENT_SET_NO":999,"REV_AT_EPOCH":12932,"BSTAR":-0.00020111,"MEAN_MOTION_DOT":-5.792e-5,"MEAN_MOTION_DDOT":0},{"OBJECT_NAME":"COSMOS 2251 DEB","OBJECT_ID":"1993-036SV","EPOCH":"2026-03-09T21:55:42.811680","MEAN_MOTION":15.15006345,"ECCENTRICITY":0.00579573,"INCLINATION":74.0283,"RA_OF_ASC_NODE":1.8812,"ARG_OF_PERICENTER":55.6817,"MEAN_ANOMALY":304.9843,"EPHEMERIS_TYPE":0,"CLASSIFICATION_TYPE":"U","NORAD_CAT_ID":34452,"ELEMENT_SET_NO":999,"REV_AT_EPOCH":91981,"BSTAR":0.0011020825,"MEAN_MOTION_DOT":0.00021495,"MEAN_MOTION_DDOT":0}]
